OBJECT_NAME,OBJECT_ID,EPOCH,MEAN_MOTION,ECCENTRICITY,INCLINATION,RA_OF_ASC_NODE,ARG_OF_PERICENTER,MEAN_ANOMALY,EPHEMERIS_TYPE,CLASSIFICATION_TYPE,NORAD_CAT_ID,ELEMENT_SET_NO,REV_AT_EPOCH,BSTAR,MEAN_MOTION_DOT,MEAN_MOTION_DDOT
STARLINK-33861,2025-085Q,2026-06-25T14:49:39.641088,15.27598922,.0001236,43.0023,141.6140,270.7993,89.2717,0,U,63678,999,6536,.59744E-3,.16224E-3,0
STARLINK-33850,2025-085R,2026-06-25T14:21:53.996832,15.27610052,.0002105,42.9990,141.4604,277.8764,82.1848,0,U,63679,999,6536,.8071E-3,.22035E-3,0
STARLINK-33887,2025-085S,2026-06-24T23:30:05.160960,15.27593273,.00013093,42.9988,144.5482,214.4715,145.6052,0,U,63680,999,6534,.58662703E-3,.15922E-3,0
STARLINK-33886,2025-085T,2026-06-25T15:06:05.789088,15.27599326,.0002129,43.0031,140.8299,268.1321,91.9287,0,U,63681,999,6538,.83694E-3,.22854E-3,0
STARLINK-33840,2025-085U,2026-06-25T19:26:34.883808,15.27593930,.0000239,42.9997,140.4716,344.5593,15.5251,0,U,63682,999,6540,.91305E-3,.24959E-3,0
STARLINK-33853,2025-085W,2026-06-24T04:53:09.896928,15.27592077,.00015676,43.0002,149.0477,276.7802,83.2871,0,U,63684,999,6516,.3969872E-3,.10682E-3,0
STARLINK-33847,2025-085X,2026-06-25T14:29:18.223296,15.27599475,.0001239,42.9999,141.4983,268.8432,91.2278,0,U,63685,999,6537,.57168E-3,.15512E-3,0
STARLINK-33880,2025-085Y,2026-06-25T14:47:49.010208,15.27589161,.000059,42.9971,141.5980,61.2197,298.8713,0,U,63686,999,6548,.40477E-3,.10896E-3,0
HULIANWANG DIGUI-20,2025-086A,2026-06-25T18:55:15.066048,13.24410738,.0001592,86.5056,310.2347,111.8353,248.2951,0,U,63687,999,5601,.86703E-4,.52E-6,0
HULIANWANG DIGUI-21,2025-086B,2026-06-25T19:06:08.504928,13.24409388,.0001456,86.5084,310.2922,111.8170,248.3119,0,U,63688,999,5600,.76576E-4,.48E-6,0
HULIANWANG DIGUI-22,2025-086C,2026-06-25T19:16:58.816128,13.24409678,.0001629,86.5049,310.1547,112.7548,247.3758,0,U,63689,999,5600,.41763E-5,.16E-6,0
HULIANWANG DIGUI-23,2025-086D,2026-06-25T19:38:41.836992,13.24409473,.0001601,86.5091,310.3315,112.2572,247.8732,0,U,63690,999,5600,-.10944E-4,.1E-6,0
HULIANWANG DIGUI-24,2025-086E,2026-06-25T19:49:38.578080,13.24410230,.0001504,86.5097,310.3630,112.8271,247.3022,0,U,63691,999,5600,.17317E-4,.22E-6,0
HULIANWANG DIGUI-25,2025-086F,2026-06-25T20:00:30.511008,13.24409501,.0001549,86.5036,310.1158,109.7106,250.4195,0,U,63692,999,5600,.41293E-4,.32E-6,0
HULIANWANG DIGUI-26,2025-086G,2026-06-25T19:27:48.043008,13.24408481,.0001498,86.5085,310.3027,120.5459,239.5823,0,U,63693,999,5600,.87599E-5,.18E-6,0
HULIANWANG DIGUI-27,2025-086H,2026-06-25T20:11:23.276832,13.24411279,.000154,86.5045,310.1580,112.4448,247.6849,0,U,63694,999,5600,.48468E-4,.35E-6,0
HULIANWANG DIGUI-28,2025-086J,2026-06-25T20:33:05.285088,13.24410133,.0001636,86.5010,310.0187,112.6935,247.4372,0,U,63695,999,5600,.83957E-4,.51E-6,0
HULIANWANG DIGUI-29,2025-086K,2026-06-25T20:22:15.912192,13.24410479,.0001501,86.5038,310.1316,109.7922,250.3373,0,U,63696,999,5600,.70368E-4,.45E-6,0
STARLINK-33894,2025-087A,2026-06-25T18:07:30.042912,15.34404417,.0001396,53.1572,75.5741,131.1273,228.9850,0,U,63697,999,6577,.66538E-3,.22174E-3,0
STARLINK-33922,2025-087B,2026-06-25T17:22:24.021696,15.30216132,.0001536,53.1596,77.5021,115.6064,244.5096,0,U,63698,999,6573,.11661E-2,.34355E-3,0
STARLINK-33919,2025-087C,2026-06-25T10:52:40.266912,15.30223922,.000111,53.1583,79.3660,97.6670,262.4457,0,U,63699,999,6569,.10464E-2,.30783E-3,0
STARLINK-33908,2025-087D,2026-06-25T20:54:49.214016,15.30203865,.0001117,53.1586,76.9990,65.9148,294.1970,0,U,63700,999,6576,.52158E-3,.15122E-3,0
STARLINK-33950,2025-087E,2026-06-25T20:35:56.984352,15.31682181,.0005281,53.1597,76.9209,123.2233,236.9275,0,U,63701,999,6576,.32544E-2,.101984E-2,0
STARLINK-33939,2025-087F,2026-06-25T10:31:21.610848,15.31733548,.0001262,53.1580,78.5653,62.3069,297.8060,0,U,63702,999,6570,.89591E-3,.27568E-3,0
STARLINK-33868,2025-087G,2026-06-25T00:38:12.477984,15.30214122,.00012599,53.1576,80.9658,110.9787,249.1349,0,U,63703,999,6563,.86449657E-3,.25343E-3,0
STARLINK-33937,2025-087H,2026-06-25T17:17:50.557056,15.30208223,.0001915,53.1587,77.4792,85.6358,274.4862,0,U,63704,999,6574,.67019E-3,.19547E-3,0
STARLINK-33848,2025-087J,2026-06-25T20:42:39.789792,15.30214080,.0001213,53.1586,76.9439,72.9259,287.1874,0,U,63705,999,6575,.74701E-3,.2184E-3,0
STARLINK-33995,2025-087K,2026-06-25T01:20:45.521088,15.30219702,.00013273,53.1595,81.1500,85.5669,274.5483,0,U,63706,999,6563,.75600055E-3,.22112E-3,0
STARLINK-33982,2025-087L,2026-06-25T20:51:46.586016,15.30224000,.0001229,53.1582,76.9811,116.1136,243.9991,0,U,63707,999,6576,.10791E-2,.31762E-3,0
STARLINK-33915,2025-087M,2026-06-25T18:00:23.289120,15.30231158,.0003541,53.1582,77.6646,101.3699,258.7699,0,U,63708,999,6574,.10986E-2,.32354E-3,0
