STARLINK-33861          
1 63678U 25085Q   26176.61781992  .00016224  00000+0  59744-3 0  9991
2 63678  43.0023 141.6140 0001236 270.7993  89.2717 15.27598922 65364
STARLINK-33850          
1 63679U 25085R   26176.59854163  .00022035  00000+0  80710-3 0  9994
2 63679  42.9990 141.4604 0002105 277.8764  82.1848 15.27610052 65365
STARLINK-33887          
1 63680U 25085S   26175.97922640  .00015922  00000+0  58663-3 0  9992
2 63680  42.9988 144.5482 0001309 214.4715 145.6052 15.27593273 65345
STARLINK-33886          
1 63681U 25085T   26176.62923367  .00022854  00000+0  83694-3 0  9997
2 63681  43.0031 140.8299 0002129 268.1321  91.9287 15.27599326 65384
STARLINK-33840          
1 63682U 25085U   26176.81012597  .00024959  00000+0  91305-3 0  9999
2 63682  42.9997 140.4716 0000239 344.5593  15.5251 15.27593930 65405
STARLINK-33853          
1 63684U 25085W   26175.20358677  .00010682  00000+0  39699-3 0  9991
2 63684  43.0002 149.0477 0001567 276.7802  83.2871 15.27592077 65163
STARLINK-33847          
1 63685U 25085X   26176.60368314  .00015512  00000+0  57168-3 0  9994
2 63685  42.9999 141.4983 0001239 268.8432  91.2278 15.27599475 65374
STARLINK-33880          
1 63686U 25085Y   26176.61653947  .00010896  00000+0  40477-3 0  9990
2 63686  42.9971 141.5980 0000590  61.2197 298.8713 15.27589161 65487
HULIANWANG DIGUI-20     
1 63687U 25086A   26176.78836882  .00000052  00000+0  86703-4 0  9997
2 63687  86.5056 310.2347 0001592 111.8353 248.2951 13.24410738 56017
HULIANWANG DIGUI-21     
1 63688U 25086B   26176.79593177  .00000048  00000+0  76576-4 0  9998
2 63688  86.5084 310.2922 0001456 111.8170 248.3119 13.24409388 56009
HULIANWANG DIGUI-22     
1 63689U 25086C   26176.80345852  .00000016  00000+0  41763-5 0  9992
2 63689  86.5049 310.1547 0001629 112.7548 247.3758 13.24409678 56004
HULIANWANG DIGUI-23     
1 63690U 25086D   26176.81853978  .00000010  00000+0 -10944-4 0  9999
2 63690  86.5091 310.3315 0001601 112.2572 247.8732 13.24409473 56000
HULIANWANG DIGUI-24     
1 63691U 25086E   26176.82614095  .00000022  00000+0  17317-4 0  9999
2 63691  86.5097 310.3630 0001504 112.8271 247.3022 13.24410230 56001
HULIANWANG DIGUI-25     
1 63692U 25086F   26176.83368647  .00000032  00000+0  41293-4 0  9991
2 63692  86.5036 310.1158 0001549 109.7106 250.4195 13.24409501 56004
HULIANWANG DIGUI-26     
1 63693U 25086G   26176.81097272  .00000018  00000+0  87599-5 0  9997
2 63693  86.5085 310.3027 0001498 120.5459 239.5823 13.24408481 56003
HULIANWANG DIGUI-27     
1 63694U 25086H   26176.84124163  .00000035  00000+0  48468-4 0  9991
2 63694  86.5045 310.1580 0001540 112.4448 247.6849 13.24411279 56005
HULIANWANG DIGUI-28     
1 63695U 25086J   26176.85631117  .00000051  00000+0  83957-4 0  9995
2 63695  86.5010 310.0187 0001636 112.6935 247.4372 13.24410133 56006
HULIANWANG DIGUI-29     
1 63696U 25086K   26176.84879528  .00000045  00000+0  70368-4 0  9990
2 63696  86.5038 310.1316 0001501 109.7922 250.3373 13.24410479 56003
STARLINK-33894          
1 63697U 25087A   26176.75520883  .00022174  00000+0  66538-3 0  9999
2 63697  53.1572  75.5741 0001396 131.1273 228.9850 15.34404417 65774
STARLINK-33922          
1 63698U 25087B   26176.72388914  .00034355  00000+0  11661-2 0  9994
2 63698  53.1596  77.5021 0001536 115.6064 244.5096 15.30216132 65738
STARLINK-33919          
1 63699U 25087C   26176.45324383  .00030783  00000+0  10464-2 0  9996
2 63699  53.1583  79.3660 0001110  97.6670 262.4457 15.30223922 65694
STARLINK-33908          
1 63700U 25087D   26176.87140294  .00015122  00000+0  52158-3 0  9999
2 63700  53.1586  76.9990 0001117  65.9148 294.1970 15.30203865 65768
STARLINK-33950          
1 63701U 25087E   26176.85829843  .00101984  00000+0  32544-2 0  9990
2 63701  53.1597  76.9209 0005281 123.2233 236.9275 15.31682181 65768
STARLINK-33939          
1 63702U 25087F   26176.43844457  .00027568  00000+0  89591-3 0  9993
2 63702  53.1580  78.5653 0001262  62.3069 297.8060 15.31733548 65703
STARLINK-33868          
1 63703U 25087G   26176.02653331  .00025343  00000+0  86450-3 0  9998
2 63703  53.1576  80.9658 0001259 110.9787 249.1349 15.30214122 65637
STARLINK-33937          
1 63704U 25087H   26176.72072404  .00019547  00000+0  67019-3 0  9991
2 63704  53.1587  77.4792 0001915  85.6358 274.4862 15.30208223 65749
STARLINK-33848          
1 63705U 25087J   26176.86296053  .00021840  00000+0  74701-3 0  9990
2 63705  53.1586  76.9439 0001213  72.9259 287.1874 15.30214080 65754
STARLINK-33995          
1 63706U 25087K   26176.05608242  .00022112  00000+0  75600-3 0  9991
2 63706  53.1595  81.1500 0001327  85.5669 274.5483 15.30219702 65632
STARLINK-33982          
1 63707U 25087L   26176.86928919  .00031762  00000+0  10791-2 0  9997
2 63707  53.1582  76.9811 0001229 116.1136 243.9991 15.30224000 65762
STARLINK-33915          
1 63708U 25087M   26176.75026955  .00032354  00000+0  10986-2 0  9999
2 63708  53.1582  77.6646 0003541 101.3699 258.7699 15.30231158 65745
